[{"OBJECT_NAME":"FLOCK 4G-8","OBJECT_ID":"2025-009E","EPOCH":"2026-03-09T17:22:17.546016","MEAN_MOTION":15.27623414,"ECCENTRICITY":0.00030503,"INCLINATION":97.4045,"RA_OF_ASC_NODE":151.2834,"ARG_OF_PERICENTER":315.2538,"MEAN_ANOMALY":44.8455,"EPHEMERIS_TYPE":0,"CLASSIFICATION_TYPE":"U","NORAD_CAT_ID":62613,"ELEMENT_SET_NO":999,"REV_AT_EPOCH":6372,"BSTAR":0.0005043806,"MEAN_MOTION_DOT":0.00013559,"MEAN_MOTION_DDOT":0},{"OBJECT_NAME":"STARLINK-36486","OBJECT_ID":"2026-003B","EPOCH":"2026-03-09T11:21:54.966240","MEAN_MOTION":15.27566267,"ECCENTRICITY":0.00013175,"INCLINATION":43.0011,"RA_OF_ASC_NODE":228.0389,"ARG_OF_PERICENTER":268.1166,"MEAN_ANOMALY":91.9535,"EPHEMERIS_TYPE":0,"CLASSIFICATION_TYPE":"U","NORAD_CAT_ID":67335,"ELEMENT_SET_NO":999,"REV_AT_EPOCH":879,"BSTAR":0.00079221935,"MEAN_MOTION_DOT":0.00021593,"MEAN_MOTION_DDOT":0}]
